[{"OBJECT_NAME":"STARLINK-6198","OBJECT_ID":"2023-078B","EPOCH":"2026-03-09T22:24:02.398176","MEAN_MOTION":14.9832689,"ECCENTRICITY":0.00024824,"INCLINATION":70.0012,"RA_OF_ASC_NODE":323.7069,"ARG_OF_PERICENTER":251.903,"MEAN_ANOMALY":108.1859,"EPHEMERIS_TYPE":0,"CLASSIFICATION_TYPE":"U","NORAD_CAT_ID":56768,"ELEMENT_SET_NO":999,"REV_AT_EPOCH":15321,"BSTAR":-7.7001561e-5,"MEAN_MOTION_DOT":-1.011e-5,"MEAN_MOTION_DDOT":0},{"OBJECT_NAME":"CZ-6A DEB","OBJECT_ID":"2022-151VZ","EPOCH":"2026-03-09T16:21:33.047136","MEAN_MOTION":14.85344496,"ECCENTRICITY":0.00547112,"INCLINATION":98.6299,"RA_OF_ASC_NODE":135.7677,"ARG_OF_PERICENTER":212.8524,"MEAN_ANOMALY":146.9284,"EPHEMERIS_TYPE":0,"CLASSIFICATION_TYPE":"U","NORAD_CAT_ID":55208,"ELEMENT_SET_NO":999,"REV_AT_EPOCH":17071,"BSTAR":0.0043323,"MEAN_MOTION_DOT":0.00038405,"MEAN_MOTION_DDOT":0}]
